satname,norad_id,inclination_deg,eccentricity,mean_motion_rev_per_day,perigee_km,apogee_km,l1,l2
STARLINK-1234,45190,53.0411,0.0007681,15.71056678,350.7034312198957,361.0482217239214,1 45190U 20012N   26134.01429677  .00048928  00000+0  38363-3 0  9992,2 45190  53.0411   3.5760 0007681 140.8313 219.3262 15.71056678346125
STARLINK-1269,45197,53.157,0.0004066,15.32950392,464.2319366901802,469.7984144393495,1 45197U 20012V   26134.87728386  .00048282  00000+0  14976-2 0  9998,2 45197  53.1570  91.7728 0004066  82.1924 277.9539 15.32950392345053
STARLINK-1154,45198,53.0423,0.0002791,15.56450816,396.0473598936396,399.8297652726733,1 45198U 20012W   26134.77915351  .00051531  00000+0  71769-3 0  9993,2 45198  53.0423  52.1433 0002791  45.2597 314.8641 15.56450816345555
STARLINK-1199,45201,53.1565,0.0002685,15.32899687,465.32815937812757,469.00408715532194,1 45201U 20012Z   26134.26100407  .00036755  00000+0  11465-2 0  9997,2 45201  53.1565  78.9102 0002685  99.7577 260.3728 15.32899687345201
STARLINK-1209,45206,53.0407,0.0011063,15.62276037,373.6064914757899,388.56194434253666,1 45206U 20012AE  26133.95834596  .00080059  00000+0  88551-3 0  9997,2 45206  53.0407  16.9284 0011063 133.4138 226.7797 15.62276037345081
STARLINK-1231,45212,53.0376,0.0004144,15.26288892,484.0729841540733,489.7627416244359,1 45212U 20012AL  26134.78984993  .00024134  00000+0  92825-3 0  9994,2 45212  53.0376  70.8738 0004144  32.3051 327.8200 15.26288892345308
STARLINK-1271,45217,53.1567,0.000266,15.32865612,465.446690874066,469.0884461045025,1 45217U 20012AR  26134.26099799  .00035121  00000+0  10975-2 0  9996,2 45217  53.1567  79.0579 0002660  93.9121 266.2185 15.32865612345207
STARLINK-1191,45222,53.1568,0.0004876,15.36716552,452.49436971891737,459.15885103175606,1 45222U 20012AW  26134.56259619  .00029358  00000+0  81403-3 0  9994,2 45222  53.1568  51.3207 0004876 104.0953 256.0593 15.36716552345621
STARLINK-1212,45223,53.042,0.0004384,15.64694962,371.1559989925736,377.0763745867498,1 45223U 20012AX  26134.89564250  .00033527  00000+0  34324-3 0  9994,2 45223  53.0420  28.2226 0004384  81.3582 278.7929 15.64694962345963
STARLINK-1215,45225,53.1571,0.0002396,15.33170369,464.7204635054104,468.0003466619264,1 45225U 20012AZ  26134.78339709  .00024956  00000+0  77676-3 0  9996,2 45225  53.1571  50.9048 0002396 124.4413 235.6816 15.33170369345604
STARLINK-1221,45227,53.0656,0.000261,15.44036908,432.43137579195445,435.98742061181656,1 45227U 20012BB  26133.22747176  .00009118  00000+0  20553-3 0  9992,2 45227  53.0656 323.2634 0002610 178.8639 181.2373 15.44036908346672
STARLINK-1222,45228,53.0546,0.0001025,15.53517392,405.7703932299146,407.16123680699275,1 45228U 20012BC  26134.70992937  .00022551  00000+0  35510-3 0  9999,2 45228  53.0546  25.3020 0001025  69.7642 290.3478 15.53517392345871
STARLINK-1226,45229,53.1576,0.0003472,15.4144949,439.46266996734084,444.19845544288364,1 45229U 20012BD  26134.75142361  .00029808  00000+0  70819-3 0  9996,2 45229  53.1576  48.5684 0003472 114.3172 245.8196 15.41449490345571
STARLINK-1227,45230,53.1554,0.0004278,15.41528952,438.67871053934505,444.51367425876197,1 45230U 20012BE  26133.98511417  .00038294  00000+0  90362-3 0  9998,2 45230  53.1554  52.3230 0004278 113.0377 247.1080 15.41528952345575
STARLINK-1246,45235,53.1553,0.0003257,15.33039436,464.52073388296503,468.9794933487756,1 45235U 20012BK  26134.29818871  .00031369  00000+0  97657-3 0  9992,2 45235  53.1553  94.1157 0003257  95.9834 264.1540 15.33039436345028
STARLINK-1270,45237,53.0435,0.0004267,15.57854879,390.97691055453106,396.7561383623033,1 45237U 20012BM  26134.43554956  .00065738  00000+0  86543-3 0  9990,2 45237  53.0435  30.8201 0004267 105.5897 254.5586 15.57854879345883
STARLINK-1279,45360,53.0353,0.0009328,15.71148696,349.3316531903047,361.89413699458873,1 45360U 20019A   26134.31114852  .00050911  00000+0  39706-3 0  9994,2 45360  53.0353 136.9070 0009328  28.5266 331.6259 15.71148696340943
STARLINK-1301,45361,53.0369,0.0006545,15.7335451,344.9145757035203,353.7208138990154,1 45361U 20019B   26134.38818012  .00054132  00000+0  38461-3 0  9997,2 45361  53.0369 139.5699 0006545  46.2160 313.9398 15.73354510340926
STARLINK-1262,45366,53.1547,0.0002921,15.32076557,467.61749916124245,471.61795747352517,1 45366U 20019G   26134.64419111  .00023567  00000+0  75982-3 0  9995,2 45366  53.1547 218.7848 0002921 359.6966   0.4033 15.32076557339856
STARLINK-1273,45367,53.0459,0.0005711,15.53861587,401.5897612151575,409.3379901353537,1 45367U 20019H   26134.40300103  .00051873  00000+0  79394-3 0  9992,2 45367  53.0459 199.8691 0005711 334.3461  25.7265 15.53861587340085
STARLINK-1277,45369,53.045,0.0006563,15.60025341,383.1434691058921,392.0241542432959,1 45369U 20019K   26134.58638448  .00054278  00000+0  65998-3 0  9996,2 45369  53.0450 194.1671 0006563 324.6054  35.4522 15.60025341340183
STARLINK-1281,45370,53.1571,0.0004013,15.3301988,464.0614482298706,469.55520134754715,1 45370U 20019L   26134.67029758  .00024183  00000+0  75659-3 0  9993,2 45370  53.1571 218.4419 0004013 358.6249   1.4741 15.33019880339861
STARLINK-1300,45374,53.1594,0.0004215,15.33265663,463.19197110354435,468.96164334303376,1 45374U 20019Q   26134.62384379  .00024138  00000+0  74940-3 0  9997,2 45374  53.1594 218.6346 0004215   6.0691 354.0362 15.33265663339857
STARLINK-1302,45375,53.0456,0.0004851,15.64933659,370.1543769807995,376.7047468591736,1 45375U 20019R   26134.45256107  .00031359  00000+0  31843-3 0  9994,2 45375  53.0456 191.6052 0004851 352.2960   7.7979 15.64933659340207
STARLINK-1304,45376,53.0446,0.0005701,15.59434207,385.43537731166634,393.1516015557181,1 45376U 20019S   26134.44085861  .00129863  00000+0  15915-2 0  9990,2 45376  53.0446 192.1079 0005701 352.8408   7.2522 15.59434207340196
STARLINK-1305,45377,53.0375,0.0010475,15.65243807,365.4663333611179,379.6089967844455,1 45377U 20019T   26134.52102780  .00030150  00000+0  30207-3 0  9992,2 45377  53.0375 171.7127 0010475 357.1536   2.9417 15.65243807340498
STARLINK-1319,45379,53.04,0.0005303,15.73508284,345.3120489250041,352.4467225036933,1 45379U 20019V   26134.90031052  .00043309  00000+0  30709-3 0  9996,2 45379  53.0400 162.6081 0005303  16.9273 343.1921 15.73508284340659
STARLINK-1266,45383,53.0446,0.0005523,15.55639478,396.55065490050856,404.0381102056763,1 45383U 20019Z   26134.39827239  .00054028  00000+0  77444-3 0  9991,2 45383  53.0446 177.3182 0005523 341.2686  18.8120 15.55639478340393
STARLINK-1267,45384,53.0452,0.0007662,15.61610258,377.82485116611133,388.18562553215725,1 45384U 20019AA  26134.33647761  .00070734  00000+0  80563-3 0  9994,2 45384  53.0452 169.2378 0007662  21.6788 338.4548 15.61610258340506
STARLINK-1272,45386,53.0394,0.0008635,15.66909471,361.9276504970103,373.57780205428753,1 45386U 20019AC  26134.30301282  .00037095  00000+0  34650-3 0  9997,2 45386  53.0394 149.0283 0008635  15.4376 344.6901 15.66909471340784
STARLINK-1274,45387,53.0213,0.0009526,15.57544801,388.3134139764634,401.21714740163134,1 45387U 20019AD  26134.44883999  .00064927  00000+0  86357-3 0  9998,2 45387  53.0213 146.0184 0009526  37.3334 322.8337 15.57544801340838
STARLINK-1280,45388,53.0372,0.0005976,15.74159022,343.00639032309937,351.04430436064285,1 45388U 20019AE  26134.35011908  .00053531  00000+0  36759-3 0  9992,2 45388  53.0372 157.8451 0005976  21.9057 338.2216 15.74159022340651
STARLINK-1283,45389,53.0386,0.000447,15.6817162,361.1188090660007,367.14639809160053,1 45389U 20019AF  26134.46821883  .00037427  00000+0  33256-3 0  9991,2 45389  53.0386 147.5312 0004470  39.6820 320.4522 15.68171620340824
STARLINK-1284,45390,53.0405,0.0004834,15.67235988,363.5552271887145,370.0762474951762,1 45390U 20019AG  26134.40517440  .00034997  00000+0  32340-3 0  9990,2 45390  53.0405 171.5301 0004834 329.7813  30.2923 15.67235988340471
STARLINK-1297,45395,53.0411,0.0006634,15.6571316,366.71099769149896,375.6660027652024,1 45395U 20019AM  26134.90552502  .00031582  00000+0  31074-3 0  9998,2 45395  53.0411 167.8159 0006634 340.5364  19.5396 15.65713160339758
STARLINK-1307,45397,53.0525,0.0002183,15.54970764,400.75746036668806,403.7177719240981,1 45397U 20019AP  26134.40215068  .00024000  00000+0  35799-3 0  9993,2 45397  53.0525 174.1787 0002183  29.1086 331.0046 15.54970764340265
STARLINK-1255,45399,53.0349,0.000664,15.62460226,376.0652347959831,385.04077512256936,1 45399U 20019AR  26134.31967503  .00077757  00000+0  85589-3 0  9992,2 45399  53.0349 144.0174 0006640  26.6735 333.4619 15.62460226340664
STARLINK-1260,45404,53.1559,0.0005526,15.35567058,455.4583622875316,463.0150276952363,1 45404U 20019AW  26134.43056242  .00032425  00000+0  93114-3 0  9997,2 45404  53.1559 182.7449 0005526   4.2055 355.8994 15.35567058340056
STARLINK-1263,45405,53.157,0.0003913,15.33063924,463.9988475938053,469.35559920503783,1 45405U 20019AX  26134.35890214  .00030562  00000+0  95104-3 0  9995,2 45405  53.1570 183.8787 0003913  24.6260 335.4928 15.33063924340039
STARLINK-1265,45406,53.1557,0.0005257,15.35859713,454.7741514076224,461.96205287201246,1 45406U 20019AY  26134.49401011  .00026875  00000+0  76703-3 0  9990,2 45406  53.1557 182.5012 0005257 359.6078   0.4920 15.35859713340068
STARLINK-1278,45408,53.0396,0.0006929,15.66407352,364.5190405186986,373.8694921876104,1 45408U 20019BA  26134.37130582  .00034440  00000+0  32896-3 0  9993,2 45408  53.0396 169.5370 0006929   1.8583 358.2457 15.66407352340225
STARLINK-1296,45412,53.1564,0.0005976,15.36103916,453.55846228911105,461.7285871722697,1 45412U 20019BE  26134.40689406  .00030283  00000+0  85574-3 0  9998,2 45412  53.1564 182.6380 0005976 354.1992   5.8941 15.36103916340054
STARLINK-1309,45414,53.0603,0.0006611,15.65805065,366.46259184270275,375.3862008209335,1 45414U 20019BG  26134.37865352  .00032730  00000+0  32062-3 0  9995,2 45414  53.0603 163.2364 0006611 338.0451  22.0279 15.65805065340291
